#cP2023 10 17  0  0  0.00000000      96 ORBIT IGS20 HLM  IGS
## 2284 172800.00000000   900.00000000 60234 0.0000000000000
+   32   G01G02G03G04G05G06G07G08G09G10G11G12G13G14G15G16G17
+        G18G19G20G21G22G23G24G25G26G27G28G29G30G31G32  0  0
+          0  0  0  0  0  0  0  0  0  0  0  0  0  0  0  0  0
+          0  0  0  0  0  0  0  0  0  0  0  0  0  0  0  0  0
+          0  0  0  0  0  0  0  0  0  0  0  0  0  0  0  0  0
++         2  2  2  2  2  2  2  2  2  2  2  2  2  2  2  2  2
++         2  2  2  2  2  2  2  2  2  2  3  2  2  2  2  0  0
++         0  0  0  0  0  0  0  0  0  0  0  0  0  0  0  0  0
++         0  0  0  0  0  0  0  0  0  0  0  0  0  0  0  0  0
++         0  0  0  0  0  0  0  0  0  0  0  0  0  0  0  0  0
%c G  cc GPS ccc cccc cccc cccc cccc ccccc ccccc ccccc ccccc
%c cc cc ccc ccc cccc cccc cccc cccc ccccc ccccc ccccc ccccc
%f  1.2500000  1.025000000  0.00000000000  0.000000000000000
%f  0.0000000  0.000000000  0.00000000000  0.000000000000000
%i    0    0    0    0      0      0      0      0         0
%i    0    0    0    0      0      0      0      0         0
/* RAPID ORBIT COMBINATION FROM WEIGHTED AVERAGE OF:        
/* cod emr esa gfz grg jgx jpl ngs sio usn whu              
/* REFERENCED TO IGS TIME (IGST) AND TO WEIGHTED MEAN POLE: 
/* PCV:IGS20      OL/AL:FES2014b NONE     Y  ORB:CMB CLK:CMB
*  2023 10 17  9  0  0.00000000
PG01  21632.468926  15253.801925  -4164.627326    163.641425  7  7  7  79       
PG02  19055.637435  15566.527901  -9731.528473   -540.989213  7  8  4  86       
PG03  12022.296568  16180.668468  17203.038720    -73.789888  3  3  5  91       
PG04  17245.243283   5680.076982  19434.400054    186.800060  3  5  6  87       
PG05  -5950.652967 -25237.014850  -5705.068373   -146.828135  8  6  4  86       
PG06  10054.255639 -11000.788270  22060.721157    528.679027  4  3  4  83       
PG07  23883.791582   3913.475942 -10996.343505     38.176881  7  5  6  95       
PG08   8813.680310  12573.501452 -21751.031692   -147.557056  6  7  3 105       
PG09  22723.003048  -3742.501432  13194.737938    -30.051718  4  3  3  88       
PG10 -11079.243840  16400.546923 -17361.998100    -57.671846  5  6  5 105       
PG11  -2942.680342 -17626.978030  19682.712182   -418.886666  6  7  8  97       
PG12  -9976.594105 -19037.639713  15379.430931   -436.795218  6  5  4  95       
PG13   1804.385283 -16468.671205 -20911.251309    584.941901  6  6  4 102       
PG14  13482.888813 -12866.556432 -18836.522991    216.423085  5  4  6  66       
PG15 -11310.438459 -11433.692508 -21634.935914     87.918473  6  4  2  87       
PG16   -567.929372  26286.229506  -1259.058969   -437.768912  6  4  2 102       
PG17  22819.317447 -13653.795765   1752.516072    723.802549  3  5  4  67       
PG18 -22855.054705  -2294.184038 -13484.880750   -451.355268  5  8  6  89       
PG19  18634.176338 -16077.933851   9328.556428    386.099290  4  5  5  59       
PG20   -240.647393 -25736.224322   6988.333403    406.391324  6  6  4  84       
PG21  16848.266457  16607.016565 -12428.615404    146.568056  6  6  3  99       
PG22  10874.579590 -19628.069735 -13970.680669    101.338441  6  4  5  81       
PG23 -14672.177969   3009.372106 -21915.743721     83.962314  4  6  4  87       
PG24 -19875.296770 -15687.168290  -9086.276091   -348.207741  5  5  7  85       
PG25 -15102.292958  -5716.406868  20812.349104    473.107097  6  6  3  89       
PG26  -4645.760140  24061.922491   9655.093252    222.682490  4  6  4  98       
PG27  -4722.157420  18296.412222 -18747.372259    -56.380042  6  6  3 114       
PG28 -11898.222280  10631.626587  21210.542021    -27.113405  3  8  4 120       
PG29 -22957.804967   1775.515837  13285.310577   -610.092078  7  6     93       
PG30  18542.792321  -5253.211033 -18264.112013   -477.778953  6  5  5  94       
PG31  -2881.762519  15525.750162  21103.606036   -224.750650  5  6  5 117       
PG32 -20005.717441  16672.361760   4796.923255   -573.785186  4  5  7  98       
*  2023 10 17  9 15  0.00000000
PG01  21047.206929  15102.449686  -6967.018226    163.641100  7  7  8  94       
PG02  17756.220153  15271.396105 -12198.226691   -540.985024  7  8  4  94       
PG03  12011.198004  18059.404127  15256.477635    -73.768992  3  3  4  76       
PG04  15352.539726   6960.482403  20561.532968    186.809761  2  5  6  84       
PG05  -5769.588362 -25732.493938  -2885.352949   -146.829164  8  6  5  79       
PG06  12242.483870  -9857.329764  21494.526842    528.671408  3  2  4  76       
PG07  24824.786363   4637.251709  -8493.173420     38.167323  7  4  5  78       
PG08   6786.474728  13978.394954 -21583.463218   -147.559189  6  7  2 112       
PG09  21491.865764  -2633.642581  15332.519096    -30.041951  4  2  3  92       
PG10 -11351.435904  14293.541934 -18985.761884    -57.673247  4  6  5  99       
PG11   -883.595308 -16581.510234  20758.151094   -418.902197  6  7  7  96       
PG12  -9782.657520 -20713.352096  13233.000805   -436.798818  6  5  4  93       
PG13   3910.074418 -17382.834878 -19826.995458    584.946184  6  6  5 103       
PG14  13698.773642 -10634.875795 -20048.115622    216.433021  5  4  6  94       
PG15  -9533.366717 -13017.142955 -21574.336441     87.921726  6  4  3  99       
PG16   -849.155274  26224.864447   1630.052651   -437.763416  6  3  3 104       
PG17  22917.523187 -13462.565600  -1118.219968    723.802183  2  4  4  84       
PG18 -24021.821534  -3085.577647 -11105.182966   -451.365811  6  9  6  88       
PG19  19582.085670 -16305.001691   6633.839355    386.103985  4  5  5  60       
PG20    221.731571 -24880.706982   9596.763778    406.389151  6  5  4  86       
PG21  15306.972684  16173.532946 -14619.460110    146.567027  5  6  3 106       
PG22  11004.528570 -17845.609742 -16016.081863    101.331884  6  4  5  94       
PG23 -14918.969758    513.009540 -21965.553076     83.967551  6  6  4  94       
PG24 -18738.441469 -15520.566961 -11524.447197   -348.216575  5  5  7  68       
PG25 -15214.991669  -8110.173225  19954.203420    473.108785  5  6  5 102       
PG26  -5133.330301  22840.624414  12075.944430    222.680380  4  6  4 104       
PG27  -6481.107541  19297.321683 -17087.543677    -56.385237  6  6  4  84       
PG28 -14040.956934   9583.174287  20384.885300    -27.119771  3  8  4 125       
PG29 -21601.906354    830.304957  15457.166542   -610.092346  7  6     91       
PG30  20269.135817  -4192.589762 -16667.742803   -477.775575  6  4  4  97       
PG31  -5110.278124  14424.989654  21493.260499   -224.751097  6  6  4 119       
PG32 -20462.521943  16658.069148   1965.247761   -573.789946  4  4  7  91       
*  2023 10 17  9 30  0.00000000
PG01  20174.489862  14859.286386  -9653.037033    163.640763  7  7  8 117       
PG02  16182.243158  14963.039933 -14451.270720   -540.980416  7  7  3 102       
PG03  12075.092217  19699.703343  13046.080447    -73.748072  2  3  4  70       
PG04  13441.072731   8401.309887  21335.966239    186.819457  2  5  6  85       
PG05  -5558.430973 -25919.433448    -15.816333   -146.830791  8  5  5  82       
PG06  14413.841840  -8874.279236  20561.299217    528.663704  3  1  4  82       
PG07  25532.951252   5193.477371  -5845.150808     38.158191  7  4  5  90       
PG08   4861.964083  15463.259272 -21045.975177   -147.560444  5  7  1 101       
PG09  20140.839069  -1320.886711  17205.579186    -30.032196  4  2  3  85       
PG10 -11758.467947  12040.091183 -20274.463884    -57.675241  4  5  4  97       
PG11   1319.917718 -15602.583242  21477.299226   -418.917695  6  6  7  92       
PG12  -9663.951778 -22137.562318  10856.089035   -436.802744  6  5  4  95       
PG13   5842.868687 -18340.941043 -18405.244439    584.949877  6  6  5  96       
PG14  14036.262644  -8301.004902 -20912.709169    216.442978  5  4  6  97       
PG15  -7852.558246 -14668.928866 -21157.965153     87.925200  6  4  3  92       
PG16  -1147.695439  25848.410567   4490.201923   -437.758012  5  3  3  96       
PG17  22758.024349 -13094.358890  -3969.757172    723.802282  1  4  4  90       
PG18 -24974.162640  -3698.306414  -8536.141293   -451.376343  7  9  6  90       
PG19  20245.461033 -16419.748680   3821.933396    386.108706  3  4  4  83       
PG20    810.005618 -23777.723831  12042.020342    406.387455  5  5  4  83       
PG21  13514.014446  15752.522989 -16560.862447    146.566066  5  5  3 118       
PG22  11236.661553 -15850.070426 -17780.267287    101.325304  5  4  5  97       
PG23 -15298.733617  -1948.821649 -21637.316209     83.972797  6  7  3  92       
PG24 -17348.665662 -15329.998687 -13772.172705   -348.225470  5  5  7  73       
PG25 -15431.498336 -10374.488075  18745.277622    473.110444  5  6  5  89       
PG26  -5728.231953  21385.296212  14283.763264    222.678271  5  6  4 106       
PG27  -8026.962506  20266.618201 -15134.266555    -56.390419  6  5  4 109       
PG28 -16129.429030   8688.614680  19207.781416    -27.126085  4  7  5 110       
PG29 -20104.653056   -313.130643  17363.469691   -610.092624  7  6     75       
PG30  21862.672417  -3296.062078 -14785.007575   -477.772178  6  4  4 104       
PG31  -7408.726868  13430.313456  21505.686700   -224.751440  6  6  4 119       
PG32 -20664.066447  16468.345414   -900.623200   -573.794635  3  4  7  85       
EOF
